#aV2006  8  9  0  0   .00000000      96 DD+AD WGS84 FIT  NGA
## 1387 259200.00000000   900.00000000 53956  .0000000000000
+   29     1  2  3  4  5  6  7  8  9 10 11 13 14 15 16 17 18
+         19 20 21 22 23 24 25 26 27 28 29 30  0  0  0  0  0
+          0  0  0  0  0  0  0  0  0  0  0  0  0  0  0  0  0
+          0  0  0  0  0  0  0  0  0  0  0  0  0  0  0  0  0
+          0  0  0  0  0  0  0  0  0  0  0  0  0  0  0  0  0
++         0  0  0  0  0  0  0  0  0  0  0  0  0  0  0  0  0
++         0  0  0  0  0  0  0  0  0  0  0  0  0  0  0  0  0
++         0  0  0  0  0  0  0  0  0  0  0  0  0  0  0  0  0
++         0  0  0  0  0  0  0  0  0  0  0  0  0  0  0  0  0
++         0  0  0  0  0  0  0  0  0  0  0  0  0  0  0  0  0
%c cc cc ccc ccc cccc cccc cccc cccc ccccc ccccc ccccc ccccc
%c cc cc ccc ccc cccc cccc cccc cccc ccccc ccccc ccccc ccccc
%f  0.0000000  0.000000000  0.00000000000  0.000000000000000
%f  0.0000000  0.000000000  0.00000000000  0.000000000000000
%i    0    0    0    0      0      0      0      0         0
%i    0    0    0    0      0      0      0      0         0
/*      NGA, ST. LOUIS,MO.                                  
/*   EPHEMERIS COMPUTED FROM  3 DAYS OF DATA                
/* CCCCCCCCCCCCCCCCCCCCCCCCCCCCCCCCCCCCCCCCCCCCCCCCCCCCCCCCC
/* CCCCCCCCCCCCCCCCCCCCCCCCCCCCCCCCCCCCCCCCCCCCCCCCCCCCCCCCC
*  2006  8  9  6 30   .00000000                                                 
P  1 -10991.989410  18938.825380  15183.837506     69.934931                    
V  1 -16669.437447   9027.190574 -23684.965533       .021075                    
P  2   -635.538736 -16535.396590  20574.210611     22.293041                    
V  2  24563.495389  10442.928553   8823.311864       .040796                    
P  3  -4474.093729  20217.121389 -16631.438242    178.629066                    
V  3 -17703.888481  11649.666332  19437.780311      -.217123                    
P  4  13101.262422 -10185.514765  20765.384662    290.246127                    
V  4  23449.489278  12207.606708  -8443.241208       .067744                    
P  5 -12711.046002 -19611.236448  12562.601714    285.571981                    
V  5    -18.029024 -16510.251622 -25203.812451       .241825                    
P  6 -21928.226444   2598.348402  15003.654780    597.826892                    
V  6  13467.569316 -13303.500883  22212.313816       .024147                    
P  7 -18835.743622  18383.799019  -3634.065529    537.089159                    
V  7  -6133.342681    368.051903  30649.004107      -.023371                    
P  8  19921.425650  -3166.184118 -17634.103233    -75.300130                    
V  8  18923.087131  11120.426479  19132.313099      -.014313                    
P  9 -18882.231347 -15965.080003 -10610.346197     31.226132                    
V  9  12393.219405   2917.117335 -27687.574760       .015348                    
P 10   -780.190650 -26338.225894   1386.454186     87.836841                    
V 10   2802.186753   1710.805967  32170.961654       .005420                    
P 11  21588.777095  13309.568445  -8379.568381    343.944430                    
V 11 -11348.647713   1045.490248 -27547.335883       .020905                    
P 13  21938.219937  -3155.417427  14508.004186     84.035857                    
V 13 -14680.069820  11424.853885  24566.234334       .031934                    
P 14 -21401.982563  15620.448577   1298.858990     -8.022175                    
V 14  -2449.986695   -811.616253 -32301.249520       .008618                    
P 15 -19547.929673   3589.693755 -17960.568799    659.864622                    
V 15 -18834.073047 -12174.920551  17790.772993       .070497                    
P 16  -2278.619093  25699.291641   6128.915436     63.151687                    
V 16  -3313.986813  -7465.129267  30593.724178       .030434                    
P 17  21597.792889 -15360.433530    321.747009     98.955046                    
V 17   2024.642499   2175.638447 -31794.849609      -.009252                    
P 18 -15257.122974   -266.980987 -21634.212630   -245.729756                    
V 18  -1282.306103 -27711.946893    924.273669      -.011127                    
P 19   4934.878795  14685.530513 -21458.197501      6.354067                    
V 19 -23679.337071  14038.388640   4202.731340       .027768                    
P 20  13297.041219  15841.205477  16587.821817    -23.413522                    
V 20    173.930289  21320.224940 -20363.779262       .003327                    
P 21 -24062.219167  -3028.072380 -11363.289576     46.395309                    
V 21 -11670.894932  -8784.610993  26326.164139       .020927                    
P 22 -12232.551051  14964.490370 -18052.170244    123.966217                    
V 22  -2559.751086 -23185.351728 -17357.370417       .035570                    
P 23  15221.227856   6659.304701  20667.939594    137.842358                    
V 23 -21150.766991  15805.971345  10259.085710      -.001367                    
P 24  19329.316848  -4134.620893  18107.384247     27.076956                    
V 24  19157.299284  11738.020849 -17728.594570       .029742                    
P 25  -6169.367496  14277.898720  21931.498887    281.827093                    
V 25 -25343.605042  -9086.032096  -1095.564631       .161858                    
P 26  -3453.947508 -14985.856071 -21973.686498   -209.365982                    
V 26  22820.064527 -14368.110926   6888.337937      -.137932                    
P 27  24853.510849   3288.155695  -8622.352909     62.023798                    
V 27   9973.221911   6633.622882  28913.517163       .018656                    
P 28  13237.311298 -10786.046359 -19957.126915     21.343672                    
V 28   3070.029970  25944.088317 -12152.696127      -.007921                    
P 29     69.881130 -16607.998302 -20423.048863    633.161863                    
V 29  22091.404023 -14597.487251  12095.952258       .011575                    
P 30 -15560.659167  -6381.045130  20294.564119      6.325118                    
V 30  -2240.353614 -26373.176386  -9753.187855       .012755                    
EOF
